[{"OBJECT_NAME":"XINGYUN-2 02","OBJECT_ID":"2020-028B","EPOCH":"2026-03-10T00:08:18.521088","MEAN_MOTION":15.11086378,"ECCENTRICITY":0.0009258,"INCLINATION":97.5114,"RA_OF_ASC_NODE":76.7595,"ARG_OF_PERICENTER":249.9829,"MEAN_ANOMALY":110.0404,"EPHEMERIS_TYPE":0,"CLASSIFICATION_TYPE":"U","NORAD_CAT_ID":45603,"ELEMENT_SET_NO":999,"REV_AT_EPOCH":31985,"BSTAR":0.00013296102,"MEAN_MOTION_DOT":2.163e-5,"MEAN_MOTION_DDOT":0},{"OBJECT_NAME":"STARLINK-3458","OBJECT_ID":"2022-016AW","EPOCH":"2026-03-09T22:01:55.102368","MEAN_MOTION":15.08840369,"ECCENTRICITY":0.00012287,"INCLINATION":53.2181,"RA_OF_ASC_NODE":308.0494,"ARG_OF_PERICENTER":87.2143,"MEAN_ANOMALY":272.899,"EPHEMERIS_TYPE":0,"CLASSIFICATION_TYPE":"U","NORAD_CAT_ID":51758,"ELEMENT_SET_NO":999,"REV_AT_EPOCH":22488,"BSTAR":9.9118827e-5,"MEAN_MOTION_DOT":1.29e-5,"MEAN_MOTION_DDOT":0}]
